{
  "type": "FeatureCollection",
  "features": [
    {
      "type": "Feature",
      "properties": {
        "norad_id": 38833,
        "name": "GPS BIIF-3  (PRN 24)",
        "group": "gps-ops",
        "lat": 53.517627685488996,
        "lon": -120.49503381932008,
        "alt_km": 19751.297771619626,
        "timestamp": "2025-12-08T23:34:04.228090+00:00",
        "meta_object_name": "GPS BIIF-3  (PRN 24)",
        "meta_object_id": "2012-053A",
        "meta_epoch": "2025-12-07T20:46:13.738656",
        "meta_mean_motion": 2.00564906,
        "meta_eccentricity": 0.01756617,
        "meta_inclination": 53.5567,
        "meta_ra_of_asc_node": 151.4383,
        "meta_arg_of_pericenter": 63.924,
        "meta_mean_anomaly": 297.8703,
        "meta_ephemeris_type": 0,
        "meta_classification_type": "U",
        "meta_norad_cat_id": 38833,
        "meta_element_set_no": 999,
        "meta_rev_at_epoch": 9560,
        "meta_bstar": 0,
        "meta_mean_motion_dot": 5.3e-07,
        "meta_mean_motion_ddot": 0,
        "tle_line1": "1 38833U 12053A   25341.86543679  .00000053  00000+0  00000+0 0  9995",
        "tle_line2": "2 38833  53.5567 151.4383 0175661  63.9240 297.8703  2.00564906 95601"
      },
      "geometry": {
        "type": "Point",
        "coordinates": [
          -120.49503381932008,
          53.517627685488996
        ]
      }
    },
    {
      "type": "Feature",
      "properties": {
        "norad_id": 39166,
        "name": "GPS BIIF-4  (PRN 27)",
        "group": "gps-ops",
        "lat": -5.478708868185462,
        "lon": 100.60518469254113,
        "alt_km": 20452.71143378356,
        "timestamp": "2025-12-08T23:34:04.228101+00:00",
        "meta_object_name": "GPS BIIF-4  (PRN 27)",
        "meta_object_id": "2013-023A",
        "meta_epoch": "2025-12-08T05:28:17.877216",
        "meta_mean_motion": 2.00565078,
        "meta_eccentricity": 0.01376231,
        "meta_inclination": 54.656,
        "meta_ra_of_asc_node": 276.7517,
        "meta_arg_of_pericenter": 48.5653,
        "meta_mean_anomaly": 312.6225,
        "meta_ephemeris_type": 0,
        "meta_classification_type": "U",
        "meta_norad_cat_id": 39166,
        "meta_element_set_no": 999,
        "meta_rev_at_epoch": 9205,
        "meta_bstar": 0,
        "meta_mean_motion_dot": -4.1e-07,
        "meta_mean_motion_ddot": 0,
        "tle_line1": "1 39166U 13023A   25342.22798469 -.00000041  00000+0  00000+0 0  9991",
        "tle_line2": "2 39166  54.6560 276.7517 0137623  48.5653 312.6225  2.00565078 92051"
      },
      "geometry": {
        "type": "Point",
        "coordinates": [
          100.60518469254113,
          -5.478708868185462
        ]
      }
    },
    {
      "type": "Feature",
      "properties": {
        "norad_id": 39533,
        "name": "GPS BIIF-5  (PRN 30)",
        "group": "gps-ops",
        "lat": -5.998037188556325,
        "lon": -18.486987573358906,
        "alt_km": 20018.593349386832,
        "timestamp": "2025-12-08T23:34:04.228113+00:00",
        "meta_object_name": "GPS BIIF-5  (PRN 30)",
        "meta_object_id": "2014-008A",
        "meta_epoch": "2025-12-07T17:22:04.649088",
        "meta_mean_motion": 2.00574086,
        "meta_eccentricity": 0.007908,
        "meta_inclination": 53.6303,
        "meta_ra_of_asc_node": 157.1293,
        "meta_arg_of_pericenter": 226.426,
        "meta_mean_anomaly": 132.9228,
        "meta_ephemeris_type": 0,
        "meta_classification_type": "U",
        "meta_norad_cat_id": 39533,
        "meta_element_set_no": 999,
        "meta_rev_at_epoch": 8584,
        "meta_bstar": 0,
        "meta_mean_motion_dot": 5.5e-07,
        "meta_mean_motion_ddot": 0,
        "tle_line1": "1 39533U 14008A   25341.72366492  .00000055  00000+0  00000+0 0  9998",
        "tle_line2": "2 39533  53.6303 157.1293 0079080 226.4260 132.9228  2.00574086 85843"
      },
      "geometry": {
        "type": "Point",
        "coordinates": [
          -18.486987573358906,
          -5.998037188556325
        ]
      }
    },
    {
      "type": "Feature",
      "properties": {
        "norad_id": 39741,
        "name": "GPS BIIF-6  (PRN 06)",
        "group": "gps-ops",
        "lat": -13.134170319337574,
        "lon": -29.94452916747514,
        "alt_km": 20090.970812148484,
        "timestamp": "2025-12-08T23:34:04.228124+00:00",
        "meta_object_name": "GPS BIIF-6  (PRN 06)",
        "meta_object_id": "2014-026A",
        "meta_epoch": "2025-12-08T00:09:26.593920",
        "meta_mean_motion": 2.00561568,
        "meta_eccentricity": 0.00390609,
        "meta_inclination": 56.5854,
        "meta_ra_of_asc_node": 338.9605,
        "meta_arg_of_pericenter": 318.4068,
        "meta_mean_anomaly": 41.3073,
        "meta_ephemeris_type": 0,
        "meta_classification_type": "U",
        "meta_norad_cat_id": 39741,
        "meta_element_set_no": 999,
        "meta_rev_at_epoch": 8470,
        "meta_bstar": 0,
        "meta_mean_motion_dot": -8.2e-07,
        "meta_mean_motion_ddot": 0,
        "tle_line1": "1 39741U 14026A   25342.00655780 -.00000082  00000+0  00000+0 0  9993",
        "tle_line2": "2 39741  56.5854 338.9605 0039060 318.4068  41.3073  2.00561568 84701"
      },
      "geometry": {
        "type": "Point",
        "coordinates": [
          -29.94452916747514,
          -13.134170319337574
        ]
      }
    },
    {
      "type": "Feature",
      "properties": {
        "norad_id": 40105,
        "name": "GPS BIIF-7  (PRN 09)",
        "group": "gps-ops",
        "lat": -53.647240042559005,
        "lon": 25.500677128851205,
        "alt_km": 20269.8974480243,
        "timestamp": "2025-12-08T23:34:04.228136+00:00",
        "meta_object_name": "GPS BIIF-7  (PRN 09)",
        "meta_object_id": "2014-045A",
        "meta_epoch": "2025-12-07T14:17:59.496864",
        "meta_mean_motion": 2.00572139,
        "meta_eccentricity": 0.00328259,
        "meta_inclination": 55.2261,
        "meta_ra_of_asc_node": 96.1042,
        "meta_arg_of_pericenter": 119.7348,
        "meta_mean_anomaly": 240.5718,
        "meta_ephemeris_type": 0,
        "meta_classification_type": "U",
        "meta_norad_cat_id": 40105,
        "meta_element_set_no": 999,
        "meta_rev_at_epoch": 8223,
        "meta_bstar": 0,
        "meta_mean_motion_dot": -4e-08,
        "meta_mean_motion_ddot": 0,
        "tle_line1": "1 40105U 14045A   25341.59582751 -.00000004  00000+0  00000+0 0  9994",
        "tle_line2": "2 40105  55.2261  96.1042 0032825 119.7348 240.5718  2.00572139 82239"
      },
      "geometry": {
        "type": "Point",
        "coordinates": [
          25.500677128851205,
          -53.647240042559005
        ]
      }
    },
    {
      "type": "Feature",
      "properties": {
        "norad_id": 40294,
        "name": "GPS BIIF-8  (PRN 03)",
        "group": "gps-ops",
        "lat": 7.770569525388528,
        "lon": 43.42017173437097,
        "alt_km": 20099.627249073495,
        "timestamp": "2025-12-08T23:34:04.228149+00:00",
        "meta_object_name": "GPS BIIF-8  (PRN 03)",
        "meta_object_id": "2014-068A",
        "meta_epoch": "2025-12-08T11:17:40.854336",
        "meta_mean_motion": 2.00564487,
        "meta_eccentricity": 0.00607942,
        "meta_inclination": 56.8546,
        "meta_ra_of_asc_node": 38.3112,
        "meta_arg_of_pericenter": 69.2801,
        "meta_mean_anomaly": 291.427,
        "meta_ephemeris_type": 0,
        "meta_classification_type": "U",
        "meta_norad_cat_id": 40294,
        "meta_element_set_no": 999,
        "meta_rev_at_epoch": 8138,
        "meta_bstar": 0,
        "meta_mean_motion_dot": -7.8e-07,
        "meta_mean_motion_ddot": 0,
        "tle_line1": "1 40294U 14068A   25342.47061174 -.00000078  00000+0  00000+0 0  9998",
        "tle_line2": "2 40294  56.8546  38.3112 0060794  69.2801 291.4270  2.00564487 81386"
      },
      "geometry": {
        "type": "Point",
        "coordinates": [
          43.42017173437097,
          7.770569525388528
        ]
      }
    },
    {
      "type": "Feature",
      "properties": {
        "norad_id": 40534,
        "name": "GPS BIIF-9  (PRN 26)",
        "group": "gps-ops",
        "lat": -52.88588511219209,
        "lon": 130.57399553338342,
        "alt_km": 20341.783637904413,
        "timestamp": "2025-12-08T23:34:04.228160+00:00",
        "meta_object_name": "GPS BIIF-9  (PRN 26)",
        "meta_object_id": "2015-013A",
        "meta_epoch": "2025-12-08T14:24:53.320896",
        "meta_mean_motion": 2.00562777,
        "meta_eccentricity": 0.01068642,
        "meta_inclination": 53.1983,
        "meta_ra_of_asc_node": 212.0617,
        "meta_arg_of_pericenter": 38.3765,
        "meta_mean_anomaly": 322.4632,
        "meta_ephemeris_type": 0,
        "meta_classification_type": "U",
        "meta_norad_cat_id": 40534,
        "meta_element_set_no": 999,
        "meta_rev_at_epoch": 7800,
        "meta_bstar": 0,
        "meta_mean_motion_dot": 2.2e-07,
        "meta_mean_motion_ddot": 0,
        "tle_line1": "1 40534U 15013A   25342.60061714  .00000022  00000+0  00000+0 0  9999",
        "tle_line2": "2 40534  53.1983 212.0617 0106864  38.3765 322.4632  2.00562777 78006"
      },
      "geometry": {
        "type": "Point",
        "coordinates": [
          130.57399553338342,
          -52.88588511219209
        ]
      }
    }
  ]
}